CCSDS_OMM_VERS = 2.0
CREATION_DATE  = 
ORIGINATOR     = 

OBJECT_NAME    = SL-16 R/B
OBJECT_ID      = 1998-043G
CENTER_NAME    = EARTH
REF_FRAME      = TEME
TIME_SYSTEM    = UTC
MEAN_ELEMENT_THEORY = SGP/SGP4

EPOCH          = 2026-02-24T19:43:00.097824
MEAN_MOTION    = 14.26046407
ECCENTRICITY   = .00107516
INCLINATION    = 98.8231
RA_OF_ASC_NODE = 9.0957
ARG_OF_PERICENTER = 55.2481
MEAN_ANOMALY   = 304.9709

EPHEMERIS_TYPE = 0
CLASSIFICATION_TYPE = U
NORAD_CAT_ID   = 25400
ELEMENT_SET_NO = 999
REV_AT_EPOCH   = 43715
BSTAR          = .46527942E-4
MEAN_MOTION_DOT = .66E-6
MEAN_MOTION_DDOT = 0

CCSDS_OMM_VERS = 2.0
CREATION_DATE  = 
ORIGINATOR     = 

OBJECT_NAME    = SL-16 R/B
OBJECT_ID      = 1998-045B
CENTER_NAME    = EARTH
REF_FRAME      = TEME
TIME_SYSTEM    = UTC
MEAN_ELEMENT_THEORY = SGP/SGP4

EPOCH          = 2026-02-24T12:08:43.291104
MEAN_MOTION    = 14.16191329
ECCENTRICITY   = .00060388
INCLINATION    = 71.0105
RA_OF_ASC_NODE = 209.2968
ARG_OF_PERICENTER = 29.5832
MEAN_ANOMALY   = 330.5631

EPHEMERIS_TYPE = 0
CLASSIFICATION_TYPE = U
NORAD_CAT_ID   = 25407
ELEMENT_SET_NO = 999
REV_AT_EPOCH   = 42523
BSTAR          = -.22730073E-4
MEAN_MOTION_DOT = -.93E-6
MEAN_MOTION_DDOT = 0

CCSDS_OMM_VERS = 2.0
CREATION_DATE  = 
ORIGINATOR     = 

OBJECT_NAME    = ISS (ZARYA)
OBJECT_ID      = 1998-067A
CENTER_NAME    = EARTH
REF_FRAME      = TEME
TIME_SYSTEM    = UTC
MEAN_ELEMENT_THEORY = SGP/SGP4

EPOCH          = 2026-02-25T04:28:15.128544
MEAN_MOTION    = 15.48279367
ECCENTRICITY   = .00083561
INCLINATION    = 51.6318
RA_OF_ASC_NODE = 134.1640
ARG_OF_PERICENTER = 131.0189
MEAN_ANOMALY   = 229.1523

EPHEMERIS_TYPE = 0
CLASSIFICATION_TYPE = U
NORAD_CAT_ID   = 25544
ELEMENT_SET_NO = 999
REV_AT_EPOCH   = 55439
BSTAR          = .19738534E-3
MEAN_MOTION_DOT = .10179E-3
MEAN_MOTION_DDOT = 0

CCSDS_OMM_VERS = 2.0
CREATION_DATE  = 
ORIGINATOR     = 

OBJECT_NAME    = CZ-4B R/B
OBJECT_ID      = 1999-025C
CENTER_NAME    = EARTH
REF_FRAME      = TEME
TIME_SYSTEM    = UTC
MEAN_ELEMENT_THEORY = SGP/SGP4

EPOCH          = 2026-02-25T02:25:24.370464
MEAN_MOTION    = 14.18262500
ECCENTRICITY   = .00374414
INCLINATION    = 98.6655
RA_OF_ASC_NODE = 100.6792
ARG_OF_PERICENTER = 22.8347
MEAN_ANOMALY   = 3.3980

EPHEMERIS_TYPE = 0
CLASSIFICATION_TYPE = U
NORAD_CAT_ID   = 25732
ELEMENT_SET_NO = 999
REV_AT_EPOCH   = 38638
BSTAR          = .3842676E-4
MEAN_MOTION_DOT = .37E-6
MEAN_MOTION_DDOT = 0

CCSDS_OMM_VERS = 2.0
CREATION_DATE  = 
ORIGINATOR     = 

OBJECT_NAME    = OKEAN-O
OBJECT_ID      = 1999-039A
CENTER_NAME    = EARTH
REF_FRAME      = TEME
TIME_SYSTEM    = UTC
MEAN_ELEMENT_THEORY = SGP/SGP4

EPOCH          = 2026-02-25T03:31:49.548000
MEAN_MOTION    = 14.80312191
ECCENTRICITY   = .00016034
INCLINATION    = 97.9471
RA_OF_ASC_NODE = 116.1643
ARG_OF_PERICENTER = 75.9910
MEAN_ANOMALY   = 284.1480

EPHEMERIS_TYPE = 0
CLASSIFICATION_TYPE = U
NORAD_CAT_ID   = 25860
ELEMENT_SET_NO = 999
REV_AT_EPOCH   = 43253
BSTAR          = .83711384E-4
MEAN_MOTION_DOT = .586E-5
MEAN_MOTION_DDOT = 0

CCSDS_OMM_VERS = 2.0
CREATION_DATE  = 
ORIGINATOR     = 

OBJECT_NAME    = SL-16 R/B
OBJECT_ID      = 1999-039B
CENTER_NAME    = EARTH
REF_FRAME      = TEME
TIME_SYSTEM    = UTC
MEAN_ELEMENT_THEORY = SGP/SGP4

EPOCH          = 2026-02-25T03:19:52.145472
MEAN_MOTION    = 14.81711326
ECCENTRICITY   = .00135755
INCLINATION    = 97.9995
RA_OF_ASC_NODE = 115.2524
ARG_OF_PERICENTER = 300.9331
MEAN_ANOMALY   = 59.0546

EPHEMERIS_TYPE = 0
CLASSIFICATION_TYPE = U
NORAD_CAT_ID   = 25861
ELEMENT_SET_NO = 999
REV_AT_EPOCH   = 43500
BSTAR          = .7066636E-4
MEAN_MOTION_DOT = .503E-5
MEAN_MOTION_DDOT = 0

CCSDS_OMM_VERS = 2.0
CREATION_DATE  = 
ORIGINATOR     = 

OBJECT_NAME    = DELTA 2 R/B
OBJECT_ID      = 1999-041E
CENTER_NAME    = EARTH
REF_FRAME      = TEME
TIME_SYSTEM    = UTC
MEAN_ELEMENT_THEORY = SGP/SGP4

EPOCH          = 2026-02-25T04:40:08.388192
MEAN_MOTION    = 14.11788581
ECCENTRICITY   = .05022398
INCLINATION    = 51.7666
RA_OF_ASC_NODE = 351.1826
ARG_OF_PERICENTER = 311.5352
MEAN_ANOMALY   = 44.3510

EPHEMERIS_TYPE = 0
CLASSIFICATION_TYPE = U
NORAD_CAT_ID   = 25876
ELEMENT_SET_NO = 999
REV_AT_EPOCH   = 36126
BSTAR          = .28923258E-3
MEAN_MOTION_DOT = .1563E-4
MEAN_MOTION_DDOT = 0

CCSDS_OMM_VERS = 2.0
CREATION_DATE  = 
ORIGINATOR     = 

OBJECT_NAME    = HELIOS 1B
OBJECT_ID      = 1999-064A
CENTER_NAME    = EARTH
REF_FRAME      = TEME
TIME_SYSTEM    = UTC
MEAN_ELEMENT_THEORY = SGP/SGP4

EPOCH          = 2026-02-25T06:29:49.393248
MEAN_MOTION    = 14.87639300
ECCENTRICITY   = .00024558
INCLINATION    = 98.1709
RA_OF_ASC_NODE = 318.1484
ARG_OF_PERICENTER = 91.6763
MEAN_ANOMALY   = 268.4733

EPHEMERIS_TYPE = 0
CLASSIFICATION_TYPE = U
NORAD_CAT_ID   = 25977
ELEMENT_SET_NO = 999
REV_AT_EPOCH   = 68341
BSTAR          = .18766462E-3
MEAN_MOTION_DOT = .1649E-4
MEAN_MOTION_DDOT = 0

CCSDS_OMM_VERS = 2.0
CREATION_DATE  = 
ORIGINATOR     = 

OBJECT_NAME    = TERRA
OBJECT_ID      = 1999-068A
CENTER_NAME    = EARTH
REF_FRAME      = TEME
TIME_SYSTEM    = UTC
MEAN_ELEMENT_THEORY = SGP/SGP4

EPOCH          = 2026-02-25T06:03:06.823584
MEAN_MOTION    = 14.60999560
ECCENTRICITY   = .00018268
INCLINATION    = 97.9621
RA_OF_ASC_NODE = 110.1604
ARG_OF_PERICENTER = 184.4181
MEAN_ANOMALY   = 244.7597

EPHEMERIS_TYPE = 0
CLASSIFICATION_TYPE = U
NORAD_CAT_ID   = 25994
ELEMENT_SET_NO = 999
REV_AT_EPOCH   = 39326
BSTAR          = .97097537E-4
MEAN_MOTION_DOT = .432E-5
MEAN_MOTION_DDOT = 0

CCSDS_OMM_VERS = 2.0
CREATION_DATE  = 
ORIGINATOR     = 

OBJECT_NAME    = SL-16 R/B
OBJECT_ID      = 2000-006B
CENTER_NAME    = EARTH
REF_FRAME      = TEME
TIME_SYSTEM    = UTC
MEAN_ELEMENT_THEORY = SGP/SGP4

EPOCH          = 2026-02-25T07:05:06.957024
MEAN_MOTION    = 14.15820453
ECCENTRICITY   = .00175632
INCLINATION    = 71.0019
RA_OF_ASC_NODE = 123.9002
ARG_OF_PERICENTER = 207.1848
MEAN_ANOMALY   = 152.8357

EPHEMERIS_TYPE = 0
CLASSIFICATION_TYPE = U
NORAD_CAT_ID   = 26070
ELEMENT_SET_NO = 999
REV_AT_EPOCH   = 34680
BSTAR          = .15664449E-3
MEAN_MOTION_DOT = .261E-5
MEAN_MOTION_DDOT = 0

CCSDS_OMM_VERS = 2.0
CREATION_DATE  = 
ORIGINATOR     = 

OBJECT_NAME    = TITAN 4B R/B
OBJECT_ID      = 2000-047B
CENTER_NAME    = EARTH
REF_FRAME      = TEME
TIME_SYSTEM    = UTC
MEAN_ELEMENT_THEORY = SGP/SGP4

EPOCH          = 2026-02-25T07:20:15.752832
MEAN_MOTION    = 15.09431912
ECCENTRICITY   = .00377813
INCLINATION    = 67.9885
RA_OF_ASC_NODE = 75.3314
ARG_OF_PERICENTER = 50.2919
MEAN_ANOMALY   = 310.1550

EPHEMERIS_TYPE = 0
CLASSIFICATION_TYPE = U
NORAD_CAT_ID   = 26474
ELEMENT_SET_NO = 999
REV_AT_EPOCH   = 39104
BSTAR          = .210043E-3
MEAN_MOTION_DOT = .3288E-4
MEAN_MOTION_DDOT = 0

CCSDS_OMM_VERS = 2.0
CREATION_DATE  = 
ORIGINATOR     = 

OBJECT_NAME    = ENVISAT
OBJECT_ID      = 2002-009A
CENTER_NAME    = EARTH
REF_FRAME      = TEME
TIME_SYSTEM    = UTC
MEAN_ELEMENT_THEORY = SGP/SGP4

EPOCH          = 2026-02-25T07:36:44.089344
MEAN_MOTION    = 14.39031654
ECCENTRICITY   = .00013752
INCLINATION    = 98.3705
RA_OF_ASC_NODE = 10.2107
ARG_OF_PERICENTER = 86.1049
MEAN_ANOMALY   = 38.2096

EPHEMERIS_TYPE = 0
CLASSIFICATION_TYPE = U
NORAD_CAT_ID   = 27386
ELEMENT_SET_NO = 999
REV_AT_EPOCH   = 25739
BSTAR          = .5475399E-4
MEAN_MOTION_DOT = .126E-5
MEAN_MOTION_DDOT = 0

