SL-16 R/B               
1 25400U 98043G   26055.82152891  .00000066  00000+0  46528-4 0  9999
2 25400  98.8231   9.0957 0010751  55.2481 304.9709 14.26046407437159
SL-16 R/B               
1 25407U 98045B   26055.50605661 -.00000093  00000+0 -22730-4 0  9992
2 25407  71.0105 209.2968 0006038  29.5832 330.5631 14.16191329425230
ISS (ZARYA)             
1 25544U 98067A   26056.18628621  .00010179  00000+0  19739-3 0  9992
2 25544  51.6318 134.1640 0008356 131.0189 229.1523 15.48279367554392
CZ-4B R/B               
1 25732U 99025C   26056.10097651  .00000037  00000+0  38427-4 0  9999
2 25732  98.6655 100.6792 0037441  22.8347   3.3980 14.18262500386380
OKEAN-O                 
1 25860U 99039A   26056.14710125  .00000586  00000+0  83711-4 0  9993
2 25860  97.9471 116.1643 0001603  75.9910 284.1480 14.80312191432537
SL-16 R/B               
1 25861U 99039B   26056.13879798  .00000503  00000+0  70666-4 0  9999
2 25861  97.9995 115.2524 0013575 300.9331  59.0546 14.81711326435007
DELTA 2 R/B             
1 25876U 99041E   26056.19454153  .00001563  00000+0  28923-3 0  9993
2 25876  51.7666 351.1826 0502239 311.5352  44.3510 14.11788581361267
HELIOS 1B               
1 25977U 99064A   26056.27071057  .00001649  00000+0  18766-3 0  9996
2 25977  98.1709 318.1484 0002455  91.6763 268.4733 14.87639300683419
TERRA                   
1 25994U 99068A   26056.25216231  .00000432  00000+0  97098-4 0  9997
2 25994  97.9621 110.1604 0001826 184.4181 244.7597 14.60999560393262
SL-16 R/B               
1 26070U 00006B   26056.29521941  .00000261  00000+0  15664-3 0  9996
2 26070  71.0019 123.9002 0017563 207.1848 152.8357 14.15820453346809
TITAN 4B R/B            
1 26474U 00047B   26056.30573788  .00003288  00000+0  21004-3 0  9994
2 26474  67.9885  75.3314 0037781  50.2919 310.1550 15.09431912391040
ENVISAT                 
1 27386U 02009A   26056.31717696  .00000126  00000+0  54754-4 0  9993
2 27386  98.3705  10.2107 0001375  86.1049  38.2096 14.39031654257395
